NORAD_CAT_ID,OBJECT_NAME,OBJECT_TYPE,EPOCH,MEAN_MOTION,ECCENTRICITY,INCLINATION,RA_OF_ASC_NODE,ARG_OF_PERICENTER,MEAN_ANOMALY,BSTAR,MEAN_MOTION_DOT,MEAN_MOTION_DDOT,TLE_LINE0,TLE_LINE1,TLE_LINE2,SEMIMAJOR_AXIS,PERIOD,APOGEE,PERIGEE,DECAYED
54794.0,STARLINK-5392,PAYLOAD,2023-10-10 12:47:57,15.12122533,0.0001421,53.2211,31.4979,75.0652,285.0499,1.3746e-05,-5.8e-07,0.0,0 STARLINK-5392,1 54794U 22175AN  23283.53330380 -.00000058  00000-0  13746-4 0  9998,2 54794  53.2211  31.4979 0001421  75.0652 285.0499 15.12122533 47015,6907.865,95.23,530.712,528.749,0.0
54794.0,STARLINK-5392,PAYLOAD,2023-10-10 19:08:40,15.12124897,0.0001466,53.2212,30.3038,74.6251,285.4905,8.0763e-06,-1.57e-06,0.0,0 STARLINK-5392,1 54794U 22175AN  23283.79768691 -.00000157  00000-0  80763-5 0  9990,2 54794  53.2212  30.3038 0001466  74.6251 285.4905 15.12124897 47054,6907.858,95.23,530.736,528.71,0.0
54794.0,STARLINK-5392,PAYLOAD,2023-10-11 11:00:28,15.12108269,0.000132,53.2204,27.3228,85.9776,274.1368,-7.4196e-05,-1.589e-05,0.0,0 STARLINK-5392,1 54794U 22175AN  23284.45865930 -.00001589  00000-0 -74196-4 0  9991,2 54794  53.2204  27.3228 0001320  85.9776 274.1368 15.12108269 44991,6907.909,95.231,530.685,528.862,0.0
54794.0,STARLINK-5392,PAYLOAD,2023-10-11 12:35:38,15.1210796,0.0001346,53.2208,27.0243,83.5903,276.5244,-7.0017e-05,-1.517e-05,0.0,0 STARLINK-5392,1 54794U 22175AN  23284.52475601 -.00001517  00000-0 -70017-4 0  9990,2 54794  53.2208  27.0243 0001346  83.5903 276.5244 15.12107960 47161,6907.91,95.231,530.704,528.845,0.0
54794.0,STARLINK-5392,PAYLOAD,2023-10-12 12:23:20,15.12107187,0.0001377,53.2208,22.5506,87.635,272.4802,-0.00014684,-2.854e-05,0.0,0 STARLINK-5392,1 54794U 22175AN  23285.51621027 -.00002854  00000-0 -14684-3 0  9997,2 54794  53.2208  22.5506 0001377  87.6350 272.4802 15.12107187 47311,6907.912,95.231,530.728,528.826,0.0
54794.0,STARLINK-5392,PAYLOAD,2023-10-12 15:33:41,15.12107824,0.000141,53.2206,21.9551,85.2769,274.8386,-0.00012708,-2.51e-05,0.0,0 STARLINK-5392,1 54794U 22175AN  23285.64840274 -.00002510  00000-0 -12708-3 0  9992,2 54794  53.2206  21.9551 0001410  85.2769 274.8386 15.12107824 45171,6907.91,95.231,530.749,528.801,0.0
54794.0,STARLINK-5392,PAYLOAD,2023-10-13 12:11:01,15.12108743,0.0001489,53.2196,18.0785,87.8627,272.2537,6.3893e-05,8.16e-06,0.0,0 STARLINK-5392,1 54794U 22175AN  23286.50765142  .00000816  00000-0  63893-4 0  9995,2 54794  53.2196  18.0785 0001489  87.8627 272.2537 15.12108743 45308,6907.907,95.231,530.801,528.744,0.0
54794.0,STARLINK-5392,PAYLOAD,2023-10-13 13:46:11,15.12111825,0.0001495,53.2197,17.78,86.2725,273.8439,8.2895e-05,1.147e-05,0.0,0 STARLINK-5392,1 54794U 22175AN  23286.57374557  .00001147  00000-0  82895-4 0  9999,2 54794  53.2197  17.7800 0001495  86.2725 273.8439 15.12111825 47475,6907.898,95.231,530.795,528.73,0.0
54794.0,STARLINK-5392,PAYLOAD,2023-10-13 23:17:15,15.12122105,0.0001447,53.2198,15.9897,81.2215,278.8942,0.00016868,2.643e-05,0.0,0 STARLINK-5392,1 54794U 22175AN  23286.97031433  .00002643  00000-0  16868-3 0  9994,2 54794  53.2198  15.9897 0001447  81.2215 278.8942 15.12122105 45372,6907.866,95.23,530.731,528.732,0.0
54794.0,STARLINK-5392,PAYLOAD,2023-10-14 13:33:52,15.12110395,0.0001509,53.2204,13.3067,82.5574,277.5591,5.9503e-05,7.39e-06,0.0,0 STARLINK-5392,1 54794U 22175AN  23287.56519216  .00000739  00000-0  59503-4 0  9998,2 54794  53.2204  13.3067 0001509  82.5574 277.5591 15.12110395 47626,6907.902,95.231,530.81,528.725,0.0
54794.0,STARLINK-5392,PAYLOAD,2023-10-15 11:46:23,15.12107083,0.000153,53.219,9.132,85.6782,274.4386,-4.5521e-05,-1.09e-05,0.0,0 STARLINK-5392,1 54794U 22175AN  23288.49055389 -.00001090  00000-0 -45521-4 0  9995,2 54794  53.2190   9.1320 0001530  85.6782 274.4386 15.12107083 45608,6907.912,95.231,530.834,528.72,0.0
54794.0,STARLINK-5392,PAYLOAD,2023-10-15 22:52:37,15.12127044,0.0001569,53.2198,7.0438,85.1681,274.9491,-1.9701e-05,-6.41e-06,0.0,0 STARLINK-5392,1 54794U 22175AN  23288.95321466 -.00000641  00000-0 -19701-4 0  9990,2 54794  53.2198   7.0438 0001569  85.1681 274.9491 15.12127044 45676,6907.851,95.23,530.8,528.633,0.0
54794.0,STARLINK-5392,PAYLOAD,2023-10-16 11:34:03,15.12124579,0.0001576,53.2205,4.6584,89.0631,271.0543,-4.3441e-05,-1.054e-05,0.0,0 STARLINK-5392,1 54794U 22175AN  23289.48198617 -.00001054  00000-0 -43441-4 0  9996,2 54794  53.2205   4.6584 0001576  89.0631 271.0543 15.12124579 47911,6907.859,95.23,530.813,528.635,0.0
54794.0,STARLINK-5392,PAYLOAD,2023-10-16 14:44:25,15.12121191,0.0001637,53.2202,4.0619,86.9351,273.183,-7.5313e-05,-1.61e-05,0.0,0 STARLINK-5392,1 54794U 22175AN  23289.61418208 -.00001610  00000-0 -75313-4 0  9993,2 54794  53.2202   4.0619 0001637  86.9351 273.1830 15.12121191 45775,6907.869,95.23,530.865,528.603,0.0
54794.0,STARLINK-5392,PAYLOAD,2023-10-17 11:21:44,15.12124563,0.0001444,53.2209,0.1863,94.9329,265.1829,-0.00012334,-2.446e-05,0.0,0 STARLINK-5392,1 54794U 22175AN  23290.47343706 -.00002446  00000-0 -12334-3 0  9990,2 54794  53.2209   0.1863 0001444  94.9329 265.1829 15.12124563 48060,6907.859,95.23,530.721,528.726,0.0
54794.0,STARLINK-5392,PAYLOAD,2023-10-18 11:09:26,15.12114446,0.0001445,53.2192,355.7126,90.7495,269.3664,3.0991e-06,-2.43e-06,0.0,0 STARLINK-5392,1 54794U 22175AN  23291.46488472 -.00000243  00000-0  30991-5 0  9993,2 54794  53.2192 355.7126 0001445  90.7495 269.3664 15.12114446 46050,6907.89,95.231,530.753,528.757,0.0
54794.0,STARLINK-5392,PAYLOAD,2023-10-18 14:19:47,15.1211616,0.0001438,53.2189,355.1159,90.2352,269.8806,9.0988e-06,-1.39e-06,0.0,0 STARLINK-5392,1 54794U 22175AN  23291.59707612 -.00000139  00000-0  90988-5 0  9993,2 54794  53.2189 355.1159 0001438  90.2352 269.8806 15.12116160 48235,6907.885,95.231,530.743,528.756,0.0
54794.0,STARLINK-5392,PAYLOAD,2023-10-19 04:36:23,15.12119662,0.000138,53.2191,352.4315,88.7064,271.4088,6.8134e-05,8.9e-06,0.0,0 STARLINK-5392,1 54794U 22175AN  23292.19193700  .00000890  00000-0  68134-4 0  9997,2 54794  53.2191 352.4315 0001380  88.7064 271.4088 15.12119662 46161,6907.874,95.231,530.692,528.786,0.0
54794.0,STARLINK-5392,PAYLOAD,2023-10-19 10:57:06,15.12116426,0.0001363,53.2188,351.2386,88.2203,271.8946,3.8415e-05,3.72e-06,0.0,0 STARLINK-5392,1 54794U 22175AN  23292.45632503  .00000372  00000-0  38415-4 0  9999,2 54794  53.2188 351.2386 0001363  88.2203 271.8946 15.12116426 48369,6907.884,95.231,530.69,528.807,0.0
54794.0,STARLINK-5392,PAYLOAD,2023-10-19 20:28:11,15.12109257,0.0001456,53.2193,349.45,90.5159,269.6001,-2.3644e-05,-7.09e-06,0.0,0 STARLINK-5392,1 54794U 22175AN  23292.85291038 -.00000709  00000-0 -23644-4 0  9991,2 54794  53.2193 349.4500 0001456  90.5159 269.6001 15.12109257 46269,6907.906,95.231,530.776,528.765,0.0
54794.0,STARLINK-5392,PAYLOAD,2023-10-20 10:44:48,15.12094312,0.0001506,53.2195,346.7673,95.8008,264.3158,5.6992e-05,6.95e-06,0.0,0 STARLINK-5392,1 54794U 22175AN  23293.44778578  .00000695  00000-0  56992-4 0  9990,2 54794  53.2195 346.7673 0001506  95.8008 264.3158 15.12094312 46359,6907.951,95.232,530.856,528.776,0.0
54794.0,STARLINK-5392,PAYLOAD,2023-10-21 10:32:24,15.12166309,0.0001977,53.2189,342.2909,102.8556,257.2659,0.0003885,6.487e-05,0.0,0 STARLINK-5392,1 54794U 22175AN  23294.43917701  .00006487  00000-0  38850-3 0  9990,2 54794  53.2189 342.2909 0001977 102.8556 257.2659 15.12166309 46504,6907.732,95.228,530.962,528.231,0.0
54794.0,STARLINK-5392,PAYLOAD,2023-10-21 18:28:22,15.12117663,0.0001603,53.219,340.8001,101.2767,258.8407,-0.00011334,-2.272e-05,0.0,0 STARLINK-5392,1 54794U 22175AN  23294.76970539 -.00002272  00000-0 -11334-3 0  9992,2 54794  53.2190 340.8001 0001603 101.2767 258.8407 15.12117663 46558,6907.88,95.231,530.852,528.638,0.0
54794.0,STARLINK-5392,PAYLOAD,2023-10-21 20:03:32,15.12119265,0.0001399,53.2191,340.5017,106.9972,253.1175,-1.5712e-06,-3.25e-06,0.0,0 STARLINK-5392,1 54794U 22175AN  23294.83579667 -.00000325  00000-0 -15712-5 0  9990,2 54794  53.2191 340.5017 0001399 106.9972 253.1175 15.12119265 48726,6907.875,95.231,530.707,528.774,0.0
54794.0,STARLINK-5392,PAYLOAD,2023-10-22 10:20:10,15.12103801,0.0001635,53.2193,337.8186,92.4383,267.6798,1.8135e-05,1.8e-07,0.0,0 STARLINK-5392,1 54794U 22175AN  23295.43067803  .00000018  00000-0  18135-4 0  9999,2 54794  53.2193 337.8186 0001635  92.4383 267.6798 15.12103801 46652,6907.922,95.232,530.917,528.658,0.0
54794.0,STARLINK-5392,PAYLOAD,2023-10-22 11:55:21,15.12104735,0.0001664,53.2194,337.5208,93.6922,266.4262,2.4383e-05,1.27e-06,0.0,0 STARLINK-5392,1 54794U 22175AN  23295.49677416  .00000127  00000-0  24383-4 0  9995,2 54794  53.2194 337.5208 0001664  93.6922 266.4262 15.12104735 48820,6907.919,95.231,530.934,528.635,0.0
54794.0,STARLINK-5392,PAYLOAD,2023-10-22 19:51:14,15.12115379,0.00014,53.2189,336.029,88.9074,271.208,6.4898e-05,8.33e-06,0.0,0 STARLINK-5392,1 54794U 22175AN  23295.82724772  .00000833  00000-0  64898-4 0  9999,2 54794  53.2189 336.0290 0001400  88.9074 271.2080 15.12115379 48875,6907.887,95.231,530.719,528.785,0.0
54794.0,STARLINK-5392,PAYLOAD,2023-10-23 19:38:55,15.12121332,0.0001517,53.2182,331.5562,87.9713,272.1454,-6.9243e-05,-1.504e-05,0.0,0 STARLINK-5392,1 54794U 22175AN  23296.81869383 -.00001504  00000-0 -69243-4 0  9994,2 54794  53.2182 331.5562 0001517  87.9713 272.1454 15.12121332 49027,6907.869,95.23,530.782,528.686,0.0
54794.0,STARLINK-5392,PAYLOAD,2023-10-24 09:55:31,15.12116535,0.000142,53.2181,328.8734,90.4282,269.6874,2.9604e-05,2.18e-06,0.0,0 STARLINK-5392,1 54794U 22175AN  23297.41356167  .00000218  00000-0  29604-4 0  9998,2 54794  53.2181 328.8734 0001420  90.4282 269.6874 15.12116535 46954,6907.883,95.231,530.729,528.768,0.0
54794.0,STARLINK-5392,PAYLOAD,2023-10-25 11:18:23,15.12115328,0.0001729,53.2184,324.1022,89.0915,271.0276,3.9049e-05,3.83e-06,0.0,0 STARLINK-5392,1 54794U 22175AN  23298.47110381  .00000383  00000-0  39049-4 0  9998,2 54794  53.2184 324.1022 0001729  89.0915 271.0276 15.12115328 47116,6907.887,95.231,530.946,528.558,0.0
